[
  {
    "COMMENT": "GENERATED VIA SPACETRACK.ORG API",
    "ORIGINATOR": "JSPOC",
    "NORAD_CAT_ID": "40076",
    "OBJECT_NAME": "TDS 1",
    "OBJECT_TYPE": "PAYLOAD",
    "CLASSIFICATION_TYPE": "U",
    "INTLDES": "14037H",
    "EPOCH": "2014-07-26 10:30:03",
    "EPOCH_MICROSECONDS": "706560",
    "MEAN_MOTION": "14.80394393",
    "ECCENTRICITY": "0.000488",
    "INCLINATION": "98.3954",
    "RA_OF_ASC_NODE": "259.8489",
    "ARG_OF_PERICENTER": "218.1575",
    "MEAN_ANOMALY": "141.9293",
    "EPHEMERIS_TYPE": "0",
    "ELEMENT_SET_NO": "999",
    "REV_AT_EPOCH": "261",
    "BSTAR": "1.8449e-05",
    "MEAN_MOTION_DOT": "8.3e-07",
    "MEAN_MOTION_DDOT": "0",
    "FILE": "1719999",
    "TLE_LINE0": "0 TDS 1",
    "TLE_LINE1": "1 40076U 14037H   14207.43754290  .00000083  00000-0  18449-4 0  9991",
    "TLE_LINE2": "2 40076 098.3954 259.8489 0004880 218.1575 141.9293 14.80394393  2613",
    "OBJECT_ID": "2014-037H",
    "OBJECT_NUMBER": "40076",
    "SEMIMAJOR_AXIS": "7006.220",
    "PERIOD": "97.271",
    "APOGEE": "631.505",
    "PERIGEE": "624.666"
  },
  {
    "COMMENT": "GENERATED VIA SPACETRACK.ORG API",
    "ORIGINATOR": "JSPOC",
    "NORAD_CAT_ID": "40076",
    "OBJECT_NAME": "TDS 1",
    "OBJECT_TYPE": "PAYLOAD",
    "CLASSIFICATION_TYPE": "U",
    "INTLDES": "14037H",
    "EPOCH": "2014-07-26 20:14:02",
    "EPOCH_MICROSECONDS": "476608",
    "MEAN_MOTION": "14.80394356",
    "ECCENTRICITY": "0.0004898",
    "INCLINATION": "98.3955",
    "RA_OF_ASC_NODE": "260.2733",
    "ARG_OF_PERICENTER": "216.1617",
    "MEAN_ANOMALY": "143.9248",
    "EPHEMERIS_TYPE": "0",
    "ELEMENT_SET_NO": "999",
    "REV_AT_EPOCH": "267",
    "BSTAR": "1.724e-05",
    "MEAN_MOTION_DOT": "7.4e-07",
    "MEAN_MOTION_DDOT": "0",
    "FILE": "1720187",
    "TLE_LINE0": "0 TDS 1",
    "TLE_LINE1": "1 40076U 14037H   14207.84308422  .00000074  00000-0  17240-4 0  9996",
    "TLE_LINE2": "2 40076 098.3955 260.2733 0004898 216.1617 143.9248 14.80394356  2673",
    "OBJECT_ID": "2014-037H",
    "OBJECT_NUMBER": "40076",
    "SEMIMAJOR_AXIS": "7006.221",
    "PERIOD": "97.271",
    "APOGEE": "631.517",
    "PERIGEE": "624.654"
  },
  {
    "COMMENT": "GENERATED VIA SPACETRACK.ORG API",
    "ORIGINATOR": "JSPOC",
    "NORAD_CAT_ID": "40076",
    "OBJECT_NAME": "TDS 1",
    "OBJECT_TYPE": "PAYLOAD",
    "CLASSIFICATION_TYPE": "U",
    "INTLDES": "14037H",
    "EPOCH": "2014-07-27 02:43:21",
    "EPOCH_MICROSECONDS": "676511",
    "MEAN_MOTION": "14.80394597",
    "ECCENTRICITY": "0.0004934",
    "INCLINATION": "98.3954",
    "RA_OF_ASC_NODE": "260.5561",
    "ARG_OF_PERICENTER": "215.5686",
    "MEAN_ANOMALY": "144.5215",
    "EPHEMERIS_TYPE": "0",
    "ELEMENT_SET_NO": "999",
    "REV_AT_EPOCH": "271",
    "BSTAR": "1.8927e-05",
    "MEAN_MOTION_DOT": "8.7e-07",
    "MEAN_MOTION_DDOT": "0",
    "FILE": "1720417",
    "TLE_LINE0": "0 TDS 1",
    "TLE_LINE1": "1 40076U 14037H   14208.11344533  .00000087  00000-0  18927-4 0  9997",
    "TLE_LINE2": "2 40076 098.3954 260.5561 0004934 215.5686 144.5215 14.80394597  2717",
    "OBJECT_ID": "2014-037H",
    "OBJECT_NUMBER": "40076",
    "SEMIMAJOR_AXIS": "7006.220",
    "PERIOD": "97.271",
    "APOGEE": "631.542",
    "PERIGEE": "624.628"
  },
  {
    "COMMENT": "GENERATED VIA SPACETRACK.ORG API",
    "ORIGINATOR": "JSPOC",
    "NORAD_CAT_ID": "40076",
    "OBJECT_NAME": "TDS 1",
    "OBJECT_TYPE": "PAYLOAD",
    "CLASSIFICATION_TYPE": "U",
    "INTLDES": "14037H",
    "EPOCH": "2014-07-27 10:50:00",
    "EPOCH_MICROSECONDS": "610080",
    "MEAN_MOTION": "14.80394815",
    "ECCENTRICITY": "0.0004952",
    "INCLINATION": "98.3952",
    "RA_OF_ASC_NODE": "260.9097",
    "ARG_OF_PERICENTER": "213.6487",
    "MEAN_ANOMALY": "146.4417",
    "EPHEMERIS_TYPE": "0",
    "ELEMENT_SET_NO": "999",
    "REV_AT_EPOCH": "276",
    "BSTAR": "2.004e-05",
    "MEAN_MOTION_DOT": "9.5e-07",
    "MEAN_MOTION_DDOT": "0",
    "FILE": "1720561",
    "TLE_LINE0": "0 TDS 1",
    "TLE_LINE1": "1 40076U 14037H   14208.45139595  .00000095  00000-0  20040-4 0  9992",
    "TLE_LINE2": "2 40076 098.3952 260.9097 0004952 213.6487 146.4417 14.80394815  2764",
    "OBJECT_ID": "2014-037H",
    "OBJECT_NUMBER": "40076",
    "SEMIMAJOR_AXIS": "7006.219",
    "PERIOD": "97.271",
    "APOGEE": "631.554",
    "PERIGEE": "624.615"
  },
  {
    "COMMENT": "GENERATED VIA SPACETRACK.ORG API",
    "ORIGINATOR": "JSPOC",
    "NORAD_CAT_ID": "40076",
    "OBJECT_NAME": "TDS 1",
    "OBJECT_TYPE": "PAYLOAD",
    "CLASSIFICATION_TYPE": "U",
    "INTLDES": "14037H",
    "EPOCH": "2014-07-27 18:56:39",
    "EPOCH_MICROSECONDS": "561791",
    "MEAN_MOTION": "14.80395004",
    "ECCENTRICITY": "0.0004912",
    "INCLINATION": "98.3954",
    "RA_OF_ASC_NODE": "261.2634",
    "ARG_OF_PERICENTER": "213.1704",
    "MEAN_ANOMALY": "146.9195",
    "EPHEMERIS_TYPE": "0",
    "ELEMENT_SET_NO": "999",
    "REV_AT_EPOCH": "281",
    "BSTAR": "2.1725e-05",
    "MEAN_MOTION_DOT": "1.08e-06",
    "MEAN_MOTION_DDOT": "0",
    "FILE": "1720749",
    "TLE_LINE0": "0 TDS 1",
    "TLE_LINE1": "1 40076U 14037H   14208.78934678  .00000108  00000-0  21725-4 0  9999",
    "TLE_LINE2": "2 40076 098.3954 261.2634 0004912 213.1704 146.9195 14.80395004  2815",
    "OBJECT_ID": "2014-037H",
    "OBJECT_NUMBER": "40076",
    "SEMIMAJOR_AXIS": "7006.219",
    "PERIOD": "97.271",
    "APOGEE": "631.525",
    "PERIGEE": "624.642"
  },
  {
    "COMMENT": "GENERATED VIA SPACETRACK.ORG API",
    "ORIGINATOR": "JSPOC",
    "NORAD_CAT_ID": "40076",
    "OBJECT_NAME": "TDS 1",
    "OBJECT_TYPE": "PAYLOAD",
    "CLASSIFICATION_TYPE": "U",
    "INTLDES": "14037H",
    "EPOCH": "2014-07-28 03:03:18",
    "EPOCH_MICROSECONDS": "537695",
    "MEAN_MOTION": "14.80395037",
    "ECCENTRICITY": "0.0004981",
    "INCLINATION": "98.3953",
    "RA_OF_ASC_NODE": "261.6167",
    "ARG_OF_PERICENTER": "210.8758",
    "MEAN_ANOMALY": "149.2167",
    "EPHEMERIS_TYPE": "0",
    "ELEMENT_SET_NO": "999",
    "REV_AT_EPOCH": "286",
    "BSTAR": "2.0297e-05",
    "MEAN_MOTION_DOT": "9.7e-07",
    "MEAN_MOTION_DDOT": "0",
    "FILE": "1720969",
    "TLE_LINE0": "0 TDS 1",
    "TLE_LINE1": "1 40076U 14037H   14209.12729789  .00000097  00000-0  20297-4 0  9993",
    "TLE_LINE2": "2 40076 098.3953 261.6167 0004981 210.8758 149.2167 14.80395037  2864",
    "OBJECT_ID": "2014-037H",
    "OBJECT_NUMBER": "40076",
    "SEMIMAJOR_AXIS": "7006.218",
    "PERIOD": "97.271",
    "APOGEE": "631.573",
    "PERIGEE": "624.594"
  },
  {
    "COMMENT": "GENERATED VIA SPACETRACK.ORG API",
    "ORIGINATOR": "JSPOC",
    "NORAD_CAT_ID": "40076",
    "OBJECT_NAME": "TDS 1",
    "OBJECT_TYPE": "PAYLOAD",
    "CLASSIFICATION_TYPE": "U",
    "INTLDES": "14037H",
    "EPOCH": "2014-07-28 11:09:57",
    "EPOCH_MICROSECONDS": "486816",
    "MEAN_MOTION": "14.8039517",
    "ECCENTRICITY": "0.0005016",
    "INCLINATION": "98.3953",
    "RA_OF_ASC_NODE": "261.9703",
    "ARG_OF_PERICENTER": "209.3123",
    "MEAN_ANOMALY": "150.781",
    "EPHEMERIS_TYPE": "0",
    "ELEMENT_SET_NO": "999",
    "REV_AT_EPOCH": "291",
    "BSTAR": "2.044e-05",
    "MEAN_MOTION_DOT": "9.8e-07",
    "MEAN_MOTION_DDOT": "0",
    "FILE": "1721108",
    "TLE_LINE0": "0 TDS 1",
    "TLE_LINE1": "1 40076U 14037H   14209.46524869  .00000098  00000-0  20440-4 0  9993",
    "TLE_LINE2": "2 40076 098.3953 261.9703 0005016 209.3123 150.7810 14.80395170  2918",
    "OBJECT_ID": "2014-037H",
    "OBJECT_NUMBER": "40076",
    "SEMIMAJOR_AXIS": "7006.218",
    "PERIOD": "97.271",
    "APOGEE": "631.597",
    "PERIGEE": "624.569"
  },
  {
    "COMMENT": "GENERATED VIA SPACETRACK.ORG API",
    "ORIGINATOR": "JSPOC",
    "NORAD_CAT_ID": "40076",
    "OBJECT_NAME": "TDS 1",
    "OBJECT_TYPE": "PAYLOAD",
    "CLASSIFICATION_TYPE": "U",
    "INTLDES": "14037H",
    "EPOCH": "2014-07-28 19:16:36",
    "EPOCH_MICROSECONDS": "437664",
    "MEAN_MOTION": "14.80395262",
    "ECCENTRICITY": "0.0005049",
    "INCLINATION": "98.3953",
    "RA_OF_ASC_NODE": "262.3242",
    "ARG_OF_PERICENTER": "208.1369",
    "MEAN_ANOMALY": "151.9567",
    "EPHEMERIS_TYPE": "0",
    "ELEMENT_SET_NO": "999",
    "REV_AT_EPOCH": "296",
    "BSTAR": "2.056e-05",
    "MEAN_MOTION_DOT": "9.9e-07",
    "MEAN_MOTION_DDOT": "0",
    "FILE": "1721302",
    "TLE_LINE0": "0 TDS 1",
    "TLE_LINE1": "1 40076U 14037H   14209.80319951  .00000099  00000-0  20560-4 0  9999",
    "TLE_LINE2": "2 40076 098.3953 262.3242 0005049 208.1369 151.9567 14.80395262  2965",
    "OBJECT_ID": "2014-037H",
    "OBJECT_NUMBER": "40076",
    "SEMIMAJOR_AXIS": "7006.218",
    "PERIOD": "97.271",
    "APOGEE": "631.620",
    "PERIGEE": "624.545"
  },
  {
    "COMMENT": "GENERATED VIA SPACETRACK.ORG API",
    "ORIGINATOR": "JSPOC",
    "NORAD_CAT_ID": "40076",
    "OBJECT_NAME": "TDS 1",
    "OBJECT_TYPE": "PAYLOAD",
    "CLASSIFICATION_TYPE": "U",
    "INTLDES": "14037H",
    "EPOCH": "2014-07-29 03:23:15",
    "EPOCH_MICROSECONDS": "401471",
    "MEAN_MOTION": "14.80395376",
    "ECCENTRICITY": "0.0005044",
    "INCLINATION": "98.395",
    "RA_OF_ASC_NODE": "262.6777",
    "ARG_OF_PERICENTER": "206.8969",
    "MEAN_ANOMALY": "153.1986",
    "EPHEMERIS_TYPE": "0",
    "ELEMENT_SET_NO": "999",
    "REV_AT_EPOCH": "301",
    "BSTAR": "2.0095e-05",
    "MEAN_MOTION_DOT": "9.6e-07",
    "MEAN_MOTION_DDOT": "0",
    "FILE": "1721514",
    "TLE_LINE0": "0 TDS 1",
    "TLE_LINE1": "1 40076U 14037H   14210.14115048  .00000096  00000-0  20095-4 0  9999",
    "TLE_LINE2": "2 40076 098.3950 262.6777 0005044 206.8969 153.1986 14.80395376  3016",
    "OBJECT_ID": "2014-037H",
    "OBJECT_NUMBER": "40076",
    "SEMIMAJOR_AXIS": "7006.217",
    "PERIOD": "97.271",
    "APOGEE": "631.616",
    "PERIGEE": "624.548"
  }
]
